satname,norad_id,inclination_deg,eccentricity,mean_motion_rev_per_day,perigee_km,apogee_km,l1,l2
STARLINK-1184,45098,53.0527,0.0001873,15.07068101,543.8679466797967,546.4614154895307,1 45098U 20006BG  25361.85576347  .00009901  00000+0  67054-3 0  9999,2 45098  53.0527 209.0441 0001873 124.0547 236.0620 15.07068101326191
STARLINK-1193,45100,53.0537,0.000154,15.06407215,546.1229448181439,548.2559453632311,1 45100U 20006BJ  25361.79042122  .00001533  00000+0  12180-3 0  9998,2 45100  53.0537 209.3867 0001540  86.0469 274.0696 15.06407215326188
STARLINK-1143,45179,53.0521,0.0002473,15.49091825,417.70050068805176,421.0625533515158,1 45179U 20012B   25361.91671295  .00136504  00000+0  24380-2 0  9995,2 45179  53.0521 317.0499 0002473  85.1697 284.6472 15.49091825  5944
STARLINK-1202,45183,53.0539,0.0001309,15.06396797,546.3148452781079,548.1279041006019,1 45183U 20012F   25361.72039911  .00000906  00000+0  79693-4 0  9997,2 45183  53.0539   9.7018 0001309  91.4000 268.7139 15.06396797323995
STARLINK-1216,45185,53.0554,0.0001441,15.06392579,546.2363563231647,548.2322483324951,1 45185U 20012H   25361.31495118  .00000553  00000+0  56028-4 0  9994,2 45185  53.0554  11.5189 0001441  99.3756 260.7395 15.06392579323873
STARLINK-1225,45187,53.0567,0.000161,15.06388054,546.1331839371715,548.3631579622179,1 45187U 20012K   25361.73146264  .00000547  00000+0  55622-4 0  9999,2 45187  53.0567   9.6535 0001610  98.3601 261.7570 15.06388054323989
STARLINK-1230,45189,53.0557,0.0001495,15.06397229,546.1847097881227,548.2553915462731,1 45189U 20012M   25361.73514076  .00000281  00000+0  37740-4 0  9997,2 45189  53.0557   9.6386 0001495  88.0986 272.0174 15.06397229321210
STARLINK-1234,45190,53.0505,0.0012171,15.4652064,418.6312068460229,435.19606109924007,1 45190U 20012N   25361.91671295  .00120853  00000+0  23602-2 0  9994,2 45190  53.0505 311.8795 0012171  59.9600 119.8253 15.46520640  5944
STARLINK-1269,45197,53.0549,0.0001331,15.06394672,546.306121472503,548.1496536055665,1 45197U 20012V   25361.41446914  .00001347  00000+0  10929-3 0  9999,2 45197  53.0549  11.0717 0001331  85.6344 274.4797 15.06394672323910
STARLINK-1154,45198,53.0548,0.0001248,15.16380575,515.9299457882171,517.6509196754268,1 45198U 20012W   25361.91671295  .01950650  00000+0  89584-1 0  9999,2 45198  53.0548 348.5826 0001248  82.7539 295.0267 15.16380575  5837
STARLINK-1199,45201,53.0572,0.0001495,15.06391081,546.2035498274963,548.2742372196608,1 45201U 20012Z   25361.15092444  .00000194  00000+0  31903-4 0  9996,2 45201  53.0572 352.2618 0001495 101.2032 258.9125 15.06391081324185
STARLINK-1209,45206,53.0524,0.0012459,15.39124148,440.1924499662282,457.20355742844094,1 45206U 20012AE  25361.91671295  .00110094  00000+0  27607-2 0  9997,2 45206  53.0524 315.1630 0012459  58.3938 247.4237 15.39124148  5916
STARLINK-1210,45207,53.0195,0.0004229,15.73360626,346.45522750496366,352.1452939400833,1 45207U 20012AF  25361.91671295  .00108477  00000+0  76171-3 0  9991,2 45207  53.0195 264.7623 0004229 155.9973  68.6241 15.73360626  5954
STARLINK-1231,45212,53.0523,7e-05,15.15993683,517.4807443653408,518.4461984313366,1 45212U 20012AL  25361.66726530  .00035199  00000+0  18183-2 0  9990,2 45212  53.0523 345.1569 0000700 154.2225 205.8804 15.15993683324281
STARLINK-1271,45217,53.0558,0.0001382,15.06390432,546.2837954120687,548.1979698588293,1 45217U 20012AR  25361.66695686 -.00000640  00000+0 -24093-4 0  9996,2 45217  53.0558 349.9415 0001382  86.0390 274.0756 15.06390432324263
STARLINK-1191,45222,53.0557,0.0001585,15.06393652,546.1333428821472,548.3286845424936,1 45222U 20012AW  25361.21173803 -.00000402  00000+0 -81050-5 0  9998,2 45222  53.0557 331.9857 0001585  86.2649 273.8521 15.06393652324470
STARLINK-1212,45223,53.0544,8.81e-05,15.11014051,532.4972731664529,533.7150342101331,1 45223U 20012AX  25361.82165591  .00476403  00000+0  26644-1 0  9991,2 45223  53.0544 329.8427 0000881  55.7204 304.3870 15.11014051324568
STARLINK-1215,45225,53.0588,0.000122,15.06391304,546.3933142784099,548.0831058296626,1 45225U 20012AZ  25361.18594325  .00000317  00000+0  40144-4 0  9994,2 45225  53.0588 332.1004 0001220  89.7993 270.3136 15.06391304324421
STARLINK-1221,45227,53.0661,0.0005508,15.39004648,445.29097527650356,452.8118060076358,1 45227U 20012BB  25361.11789739  .00018361  00000+0  47719-3 0  9996,2 45227  53.0661 252.7443 0005508 124.8585 235.2937 15.39004648325529
STARLINK-1222,45228,53.058,0.0001748,15.42314559,438.0884714439999,440.47184048172403,1 45228U 20012BC  25361.61444491  .00063510  00000+0  14492-2 0  9992,2 45228  53.0580 326.6450 0001748  88.1068 272.0137 15.42314559324472
STARLINK-1226,45229,53.0559,0.0001525,15.06401044,546.1522430633586,548.2644733976185,1 45229U 20012BD  25361.64668066  .00001059  00000+0  89999-4 0  9998,2 45229  53.0559 330.0322 0001525  88.7510 271.3653 15.06401044324434
STARLINK-1227,45230,53.0571,0.0001812,15.0639017,545.9868070184921,548.4965642541674,1 45230U 20012BE  25361.31126602 -.00000021  00000+0  17480-4 0  9994,2 45230  53.0571 331.5368 0001812  88.8186 271.3011 15.06390170324508
STARLINK-1246,45235,53.0563,0.0001141,15.06401904,546.4155408540182,547.995904063283,1 45235U 20012BK  25361.72408275  .00001679  00000+0  13159-3 0  9990,2 45235  53.0563   9.6813 0001141  96.0497 264.0622 15.06401904324014
STARLINK-1270,45237,53.0539,0.0001346,15.34303399,462.0695580565716,463.911189545599,1 45237U 20012BM  25361.91671295  .00164158  00000+0  47786-2 0  9991,2 45237  53.0539 327.4741 0001346 100.5206 176.0582 15.34303399  5783
STARLINK-1279,45360,53.048,0.0003238,15.43121475,434.69663473545825,439.110054862751,1 45360U 20019A   25361.73780214  .00023528  00000+0  53106-3 0  9996,2 45360  53.0480  83.9692 0003238 253.0417 107.0233 15.43121475319513
STARLINK-1301,45361,53.0473,0.0004397,15.47377981,421.40871991932363,427.3908707771534,1 45361U 20019B   25361.91671295  .00072717  00000+0  13936-2 0  9995,2 45361  53.0473  91.6776 0004397 269.0859  77.5794 15.47377981  5940
STARLINK-1306,45362,53.0351,0.0004497,15.97902915,277.243692708249,283.23223515080736,1 45362U 20019C   25361.91671295  .00390280  74054-4  84224-3 0  9998,2 45362  53.0351  64.9383 0004497  25.5020 119.9201 15.97902915  6063
STARLINK-1262,45366,53.0568,0.000132,15.06397659,546.304585818677,548.1328797321303,1 45366U 20019G   25361.77199735  .00001203  00000+0  99664-4 0  9994,2 45366  53.0568 129.4670 0001320  85.9266 274.1873 15.06397659318896
STARLINK-1273,45367,53.0552,0.0001382,15.06393835,546.2733670578118,548.1875386217771,1 45367U 20019H   25361.66141160  .00002128  00000+0  16174-3 0  9993,2 45367  53.0552 129.9633 0001382  87.7132 272.4015 15.06393835318873
STARLINK-1276,45368,53.0546,0.0001067,15.06393612,546.4921995272789,547.9700730875666,1 45368U 20019J   25361.63193240 -.00000016  00000+0  17840-4 0  9994,2 45368  53.0546 130.0985 0001067  92.5733 267.5378 15.06393612318871
STARLINK-1277,45369,53.0562,0.0001341,15.06407597,546.2595882060114,548.116960444585,1 45369U 20019K   25361.75732347  .00000967  00000+0  83789-4 0  9994,2 45369  53.0562 130.1609 0001341  87.3292 272.7851 15.06407597318884
STARLINK-1281,45370,53.0556,0.0001243,15.06394452,546.3677388720726,548.0893847507386,1 45370U 20019L   25361.55453010  .00000709  00000+0  66461-4 0  9993,2 45370  53.0556 130.4485 0001243  84.9951 275.1180 15.06394452318865
STARLINK-1300,45374,53.0545,0.0001213,15.06395091,546.3865567520224,548.0666499621966,1 45374U 20019Q   25361.77569637  .00000175  00000+0  30608-4 0  9995,2 45374  53.0545 129.4501 0001213  87.5157 272.5971 15.06395091318890
STARLINK-1302,45375,53.0553,0.0001242,15.06402523,546.3436979869439,548.0639526479526,1 45375U 20019R   25361.65772906  .00000521  00000+0  53862-4 0  9990,2 45375  53.0553 129.9816 0001242  89.1086 271.0046 15.06402523318879
STARLINK-1304,45376,53.0524,0.0001378,15.11738807,529.9449923396578,531.8491221258319,1 45376U 20019S   25361.91671295  .01602866  00000+0  85391-1 0  9999,2 45376  53.0524 128.7690 0001378 120.6219 130.4151 15.11738807  5831
STARLINK-1305,45377,53.0492,0.0004102,15.4013718,442.9049486582044,448.50322788702306,1 45377U 20019T   25361.91671295  .00076573  00000+0  18725-2 0  9997,2 45377  53.0492 114.8059 0004102 202.3765 217.2030 15.40137180  5911
STARLINK-1319,45379,53.0512,0.0004458,15.44423699,430.0355081600683,436.1083820555268,1 45379U 20019V   25361.55444301  .00026566  00000+0  57246-3 0  9994,2 45379  53.0512 116.9866 0004458 216.9794 143.0904 15.44423699319058
STARLINK-1266,45383,53.057,0.0001672,15.06410552,546.0213048952128,548.3371306384342,1 45383U 20019Z   25361.69643051 -.00000810  00000+0 -35484-4 0  9994,2 45383  53.0570 109.8079 0001672  84.1181 275.9999 15.06410552319156
STARLINK-1267,45384,53.0533,8.18e-05,15.35903602,457.6786489877886,458.7970799156137,1 45384U 20019AA  25361.91671295  .01520395  00000+0  39198-1 0  9998,2 45384  53.0533 107.8945 0000818  77.6281 213.5079 15.35903602  5834
STARLINK-1272,45386,53.0495,0.0004494,15.43456974,432.85349011031485,438.9779606999091,1 45386U 20019AC  25361.79663017  .00106939  00000+0  23285-2 0  9993,2 45386  53.0495  94.3125 0004494 255.7150 104.3356 15.43456974319388
STARLINK-1274,45387,53.0326,0.000302,15.36805235,453.49992275195746,457.6274779749774,1 45387U 20019AD  25361.52023118  .00072853  00000+0  19874-2 0  9993,2 45387  53.0326  85.2463 0003020   8.7622 351.3432 15.36805235319480
STARLINK-1280,45388,53.0485,0.000423,15.49162393,416.2998337704057,422.05035980428784,1 45388U 20019AE  25361.91671295  .00083154  00000+0  14945-2 0  9992,2 45388  53.0485 110.8185 0004230 206.8146 187.2101 15.49162393  5946
STARLINK-1283,45389,53.0493,0.0003778,15.41339388,439.57863142403494,444.73204431452905,1 45389U 20019AF  25361.91671295  .00055440  00000+0  13092-2 0  9992,2 45389  53.0493  93.7509 0003778 355.5463 120.3252 15.41339388  5863
